{"type": "FeatureCollection", "features": [ {"type": "Feature", "properties": {"norad_id": 42741, "name": "EUTELSAT 172B", "group": "eutelsat", "lat": 0.02196979299606616, "lon": 122.60013764576831, "alt_km": 35785.21034591784, "timestamp": "2025-12-19T14:48:35.915974+00:00", "meta": {"OBJECT_NAME": "EUTELSAT 172B", "OBJECT_ID": "2017-029B", "EPOCH": "2025-12-19T05:31:18.765120", "MEAN_MOTION": 1.00272484, "ECCENTRICITY": 2.305e-05, "INCLINATION": 0.0445, "RA_OF_ASC_NODE": 135.9638, "ARG_OF_PERICENTER": 298.9709, "MEAN_ANOMALY": 267.9701, "EPHEMERIS_TYPE": 0, "CLASSIFICATION_TYPE": "U", "NORAD_CAT_ID": 42741, "ELEMENT_SET_NO": 999, "REV_AT_EPOCH": 3192, "BSTAR": 0, "MEAN_MOTION_DOT": 1.9e-07, "MEAN_MOTION_DDOT": 0}, "tle": {"line1": "1 42741U 17029B   25353.23007830  .00000019  00000+0  00000+0 0  9996", "line2": "2 42741   0.0445 135.9638 0000230 298.9709 267.9701  1.00272484 31922"}}, "geometry": {"type": "Point", "coordinates": [122.60013764576831, 0.02196979299606616]}}, {"type": "Feature", "properties": {"norad_id": 44334, "name": "EUTELSAT 7C", "group": "eutelsat", "lat": 0.03497982196476327, "lon": -42.38071294414511, "alt_km": 35781.03595950973, "timestamp": "2025-12-19T14:48:35.915986+00:00", "meta": {"OBJECT_NAME": "EUTELSAT 7C", "OBJECT_ID": "2019-034B", "EPOCH": "2025-12-18T15:02:24.148896", "MEAN_MOTION": 1.00271261, "ECCENTRICITY": 0.00030271, "INCLINATION": 0.073, "RA_OF_ASC_NODE": 178.0783, "ARG_OF_PERICENTER": 72.8613, "MEAN_ANOMALY": 69.1342, "EPHEMERIS_TYPE": 0, "CLASSIFICATION_TYPE": "U", "NORAD_CAT_ID": 44334, "ELEMENT_SET_NO": 999, "REV_AT_EPOCH": 502, "BSTAR": 0, "MEAN_MOTION_DOT": 7.3e-07, "MEAN_MOTION_DDOT": 0}, "tle": {"line1": "1 44334U 19034B   25352.62666839  .00000073  00000+0  00000+0 0  9996", "line2": "2 44334   0.0730 178.0783 0003027  72.8613  69.1342  1.00271261  5025"}}, "geometry": {"type": "Point", "coordinates": [-42.38071294414511, 0.03497982196476327]}}, {"type": "Feature", "properties": {"norad_id": 44624, "name": "EUTELSAT 5 WEST B", "group": "eutelsat", "lat": -0.049154659557034255, "lon": -54.37020221084655, "alt_km": 35776.14957768666, "timestamp": "2025-12-19T14:48:35.915998+00:00", "meta": {"OBJECT_NAME": "EUTELSAT 5 WEST B", "OBJECT_ID": "2019-067A", "EPOCH": "2025-12-19T06:23:28.768416", "MEAN_MOTION": 1.00271263, "ECCENTRICITY": 0.00029971, "INCLINATION": 0.0687, "RA_OF_ASC_NODE": 332.7359, "ARG_OF_PERICENTER": 295.3999, "MEAN_ANOMALY": 270.859, "EPHEMERIS_TYPE": 0, "CLASSIFICATION_TYPE": "U", "NORAD_CAT_ID": 44624, "ELEMENT_SET_NO": 999, "REV_AT_EPOCH": 2263, "BSTAR": 0, "MEAN_MOTION_DOT": -1.7e-07, "MEAN_MOTION_DDOT": 0}, "tle": {"line1": "1 44624U 19067A   25353.26630519 -.00000017  00000+0  00000+0 0  9990", "line2": "2 44624   0.0687 332.7359 0002997 295.3999 270.8590  1.00271263 22634"}}, "geometry": {"type": "Point", "coordinates": [-54.37020221084655, -0.049154659557034255]}}, {"type": "Feature", "properties": {"norad_id": 45027, "name": "EUTELSAT KONNECT", "group": "eutelsat", "lat": -0.06291228055930068, "lon": -42.18782361063273, "alt_km": 35781.31079512842, "timestamp": "2025-12-19T14:48:35.916010+00:00", "meta": {"OBJECT_NAME": "EUTELSAT KONNECT", "OBJECT_ID": "2020-005B", "EPOCH": "2025-12-18T15:02:31.637184", "MEAN_MOTION": 1.00271854, "ECCENTRICITY": 0.00013062, "INCLINATION": 0.0731, "RA_OF_ASC_NODE": 95.4615, "ARG_OF_PERICENTER": 190.4779, "MEAN_ANOMALY": 34.3804, "EPHEMERIS_TYPE": 0, "CLASSIFICATION_TYPE": "U", "NORAD_CAT_ID": 45027, "ELEMENT_SET_NO": 999, "REV_AT_EPOCH": 2252, "BSTAR": 0, "MEAN_MOTION_DOT": 7.5e-07, "MEAN_MOTION_DDOT": 0}, "tle": {"line1": "1 45027U 20005B   25352.62675506  .00000075  00000+0  00000+0 0  9999", "line2": "2 45027   0.0731  95.4615 0001306 190.4779  34.3804  1.00271854 22529"}}, "geometry": {"type": "Point", "coordinates": [-42.18782361063273, -0.06291228055930068]}}, {"type": "Feature", "properties": {"norad_id": 49056, "name": "EUTELSAT QUANTUM", "group": "eutelsat", "lat": -0.009738061172145731, "lon": -1.656111180070381, "alt_km": 35783.55466704624, "timestamp": "2025-12-19T14:48:35.916021+00:00", "meta": {"OBJECT_NAME": "EUTELSAT QUANTUM", "OBJECT_ID": "2021-069B", "EPOCH": "2025-12-19T06:38:19.846176", "MEAN_MOTION": 1.00271591, "ECCENTRICITY": 0.00033236, "INCLINATION": 0.0171, "RA_OF_ASC_NODE": 26.4091, "ARG_OF_PERICENTER": 252.46, "MEAN_ANOMALY": 316.5454, "EPHEMERIS_TYPE": 0, "CLASSIFICATION_TYPE": "U", "NORAD_CAT_ID": 49056, "ELEMENT_SET_NO": 999, "REV_AT_EPOCH": 1612, "BSTAR": 0, "MEAN_MOTION_DOT": 1.51e-06, "MEAN_MOTION_DDOT": 0}, "tle": {"line1": "1 49056U 21069B   25353.27661859  .00000151  00000+0  00000+0 0  9999", "line2": "2 49056   0.0171  26.4091 0003323 252.4600 316.5454  1.00271591 16121"}}, "geometry": {"type": "Point", "coordinates": [-1.656111180070381, -0.009738061172145731]}}, {"type": "Feature", "properties": {"norad_id": 53765, "name": "EUTELSAT KONNECT VHTS", "group": "eutelsat", "lat": -0.05034522452222857, "lon": -46.64156810326441, "alt_km": 35783.24499884895, "timestamp": "2025-12-19T14:48:35.916033+00:00", "meta": {"OBJECT_NAME": "EUTELSAT KONNECT VHTS", "OBJECT_ID": "2022-110A", "EPOCH": "2025-12-18T22:15:38.693952", "MEAN_MOTION": 1.00269719, "ECCENTRICITY": 0.00022903, "INCLINATION": 0.0647, "RA_OF_ASC_NODE": 100.6033, "ARG_OF_PERICENTER": 142.9466, "MEAN_ANOMALY": 180.8811, "EPHEMERIS_TYPE": 0, "CLASSIFICATION_TYPE": "U", "NORAD_CAT_ID": 53765, "ELEMENT_SET_NO": 999, "REV_AT_EPOCH": 501, "BSTAR": 0, "MEAN_MOTION_DOT": 4.2e-07, "MEAN_MOTION_DDOT": 0}, "tle": {"line1": "1 53765U 22110A   25352.92753118  .00000042  00000+0  00000+0 0  9999", "line2": "2 53765   0.0647 100.6033 0002290 142.9466 180.8811  1.00269719  5011"}}, "geometry": {"type": "Point", "coordinates": [-46.64156810326441, -0.05034522452222857]}}, {"type": "Feature", "properties": {"norad_id": 54048, "name": "EUTELSAT HOTBIRD 13F", "group": "eutelsat", "lat": 0.014882226368142137, "lon": -36.422907846951276, "alt_km": 35778.93633228261, "timestamp": "2025-12-19T14:48:35.916045+00:00", "meta": {"OBJECT_NAME": "EUTELSAT HOTBIRD 13F", "OBJECT_ID": "2022-134A", "EPOCH": "2025-12-18T15:04:08.982336", "MEAN_MOTION": 1.00271613, "ECCENTRICITY": 0.00022524, "INCLINATION": 0.0514, "RA_OF_ASC_NODE": 293.3957, "ARG_OF_PERICENTER": 71.3583, "MEAN_ANOMALY": 321.7634, "EPHEMERIS_TYPE": 0, "CLASSIFICATION_TYPE": "U", "NORAD_CAT_ID": 54048, "ELEMENT_SET_NO": 999, "REV_AT_EPOCH": 1156, "BSTAR": 0, "MEAN_MOTION_DOT": 1.12e-06, "MEAN_MOTION_DDOT": 0}, "tle": {"line1": "1 54048U 22134A   25352.62788174  .00000112  00000+0  00000+0 0  9995", "line2": "2 54048   0.0514 293.3957 0002252  71.3583 321.7634  1.00271613 11569"}}, "geometry": {"type": "Point", "coordinates": [-36.422907846951276, 0.014882226368142137]}}, {"type": "Feature", "properties": {"norad_id": 54225, "name": "EUTELSAT HOTBIRD 13G", "group": "eutelsat", "lat": 0.02597106492754934, "lon": -36.39760875432445, "alt_km": 35792.15832715553, "timestamp": "2025-12-19T14:48:35.916056+00:00", "meta": {"OBJECT_NAME": "EUTELSAT HOTBIRD 13G", "OBJECT_ID": "2022-146A", "EPOCH": "2025-12-19T06:28:43.266144", "MEAN_MOTION": 1.00272573, "ECCENTRICITY": 0.00017546, "INCLINATION": 0.0516, "RA_OF_ASC_NODE": 228.388, "ARG_OF_PERICENTER": 305.7991, "MEAN_ANOMALY": 24.1032, "EPHEMERIS_TYPE": 0, "CLASSIFICATION_TYPE": "U", "NORAD_CAT_ID": 54225, "ELEMENT_SET_NO": 999, "REV_AT_EPOCH": 566, "BSTAR": 0, "MEAN_MOTION_DOT": 1.12e-06, "MEAN_MOTION_DDOT": 0}, "tle": {"line1": "1 54225U 22146A   25353.26994521  .00000112  00000+0  00000+0 0  9991", "line2": "2 54225   0.0516 228.3880 0001754 305.7991  24.1032  1.00272573  5660"}}, "geometry": {"type": "Point", "coordinates": [-36.39760875432445, 0.02597106492754934]}}, {"type": "Feature", "properties": {"norad_id": 54259, "name": "EUTELSAT 10B", "group": "eutelsat", "lat": -0.05251959204859873, "lon": -39.46895518674728, "alt_km": 35800.74568599851, "timestamp": "2025-12-19T14:48:35.916068+00:00", "meta": {"OBJECT_NAME": "EUTELSAT 10B", "OBJECT_ID": "2022-157A", "EPOCH": "2025-12-19T03:02:18.038688", "MEAN_MOTION": 1.00249724, "ECCENTRICITY": 0.00023699, "INCLINATION": 0.0621, "RA_OF_ASC_NODE": 98.3483, "ARG_OF_PERICENTER": 10.4873, "MEAN_ANOMALY": 34.7012, "EPHEMERIS_TYPE": 0, "CLASSIFICATION_TYPE": "U", "NORAD_CAT_ID": 54259, "ELEMENT_SET_NO": 999, "REV_AT_EPOCH": 1122, "BSTAR": 0, "MEAN_MOTION_DOT": 9e-07, "MEAN_MOTION_DDOT": 0}, "tle": {"line1": "1 54259U 22157A   25353.12659767  .00000090  00000+0  00000+0 0  9990", "line2": "2 54259   0.0621  98.3483 0002369  10.4873  34.7012  1.00249724 11226"}}, "geometry": {"type": "Point", "coordinates": [-39.46895518674728, -0.05251959204859873]}}, {"type": "Feature", "properties": {"norad_id": 59346, "name": "EUTELSAT 36D", "group": "eutelsat", "lat": -0.02033904908148058, "lon": -13.563704868635645, "alt_km": 35784.49155278174, "timestamp": "2025-12-19T14:48:35.916080+00:00", "meta": {"OBJECT_NAME": "EUTELSAT 36D", "OBJECT_ID": "2024-059A", "EPOCH": "2025-12-19T06:35:12.644160", "MEAN_MOTION": 1.0027145, "ECCENTRICITY": 4.559e-05, "INCLINATION": 0.0258, "RA_OF_ASC_NODE": 20.2811, "ARG_OF_PERICENTER": 356.6231, "MEAN_ANOMALY": 205.861, "EPHEMERIS_TYPE": 0, "CLASSIFICATION_TYPE": "U", "NORAD_CAT_ID": 59346, "ELEMENT_SET_NO": 999, "REV_AT_EPOCH": 634, "BSTAR": 0, "MEAN_MOTION_DOT": 0, "MEAN_MOTION_DDOT": 0}, "tle": {"line1": "1 59346U 24059A   25353.27445190  .00000000  00000+0  00000+0 0  9995", "line2": "2 59346   0.0258  20.2811 0000455 356.6231 205.8610  1.00271450  6343"}}, "geometry": {"type": "Point", "coordinates": [-13.563704868635645, -0.02033904908148058]}}]}